$$SOE
2461295.500000000, A.D. 2026-Sep-12 00:00:00.0000, 1.497037386672849E+08, 3.401792152212496E+08, -5.724338495429671E+07,
2461302.500000000, A.D. 2026-Sep-19 00:00:00.0000, 1.405171045594535E+08, 3.465385790793920E+08, -5.773379005685307E+07,
2461309.500000000, A.D. 2026-Sep-26 00:00:00.0000, 1.312044748628045E+08, 3.525874035037713E+08, -5.817245132374658E+07,
2461316.500000000, A.D. 2026-Oct-03 00:00:00.0000, 1.217763146794867E+08, 3.583259674811974E+08, -5.855991602438845E+07,
2461323.500000000, A.D. 2026-Oct-10 00:00:00.0000, 1.122428191914516E+08, 3.637548108828979E+08, -5.889675675599441E+07,
2461330.500000000, A.D. 2026-Oct-17 00:00:00.0000, 1.026139171111915E+08, 3.688747149443287E+08, -5.918356872722614E+07,
2461337.500000000, A.D. 2026-Oct-24 00:00:00.0000, 9.289927479404053E+07, 3.736866838649477E+08, -5.942096726098897E+07,
2461344.500000000, A.D. 2026-Oct-31 00:00:00.0000, 8.310830100512204E+07, 3.781919274175246E+08, -5.960958551943430E+07,
2461351.500000000, A.D. 2026-Nov-07 00:00:00.0000, 7.325015258546306E+07, 3.823918445953709E+08, -5.975007246507981E+07,
2461358.500000000, A.D. 2026-Nov-14 00:00:00.0000, 6.333374113508153E+07, 3.862880091382931E+08, -5.984309099345940E+07,
2461365.500000000, A.D. 2026-Nov-21 00:00:00.0000, 5.336773883018565E+07, 3.898821575685298E+08, -5.988931600465238E+07,
2461372.500000000, A.D. 2026-Nov-28 00:00:00.0000, 4.336058231078023E+07, 3.931761766707577E+08, -5.988943255469595E+07,
2461379.500000000, A.D. 2026-Dec-05 00:00:00.0000, 3.332047819496537E+07, 3.961720897070473E+08, -5.984413446002954E+07,
2461386.500000000, A.D. 2026-Dec-12 00:00:00.0000, 2.325541033189527E+07, 3.988720444303083E+08, -5.975412310596554E+07,
2461393.500000000, A.D. 2026-Dec-19 00:00:00.0000, 1.317314685927280E+07, 4.012783028533101E+08, -5.962010627539554E+07,
2461400.500000000, A.D. 2026-Dec-26 00:00:00.0000, 3.081246880392456E+06, 4.033932318592300E+08, -5.944279704650731E+07,
2461407.500000000, A.D. 2027-Jan-02 00:00:00.0000, -7.012932999467108E+06, 4.052192944203761E+08, -5.922291279281121E+07,
2461414.500000000, A.D. 2027-Jan-09 00:00:00.0000, -1.710223219072609E+07, 4.067590414040362E+08, -5.896117428756621E+07,
2461421.500000000, A.D. 2027-Jan-16 00:00:00.0000, -2.717967968232901E+07, 4.080151039338848E+08, -5.865830490837906E+07,
2461428.500000000, A.D. 2027-Jan-23 00:00:00.0000, -3.723848762688981E+07, 4.089901862283012E+08, -5.831502994295126E+07,
2461435.500000000, A.D. 2027-Jan-30 00:00:00.0000, -4.727204478055065E+07, 4.096870588305211E+08, -5.793207601093748E+07,
2461442.500000000, A.D. 2027-Feb-06 00:00:00.0000, -5.727390939023556E+07, 4.101085525354467E+08, -5.751017060733923E+07,
2461449.500000000, A.D. 2027-Feb-13 00:00:00.0000, -6.723780200314467E+07, 4.102575542005482E+08, -5.705004162054649E+07,
2461456.500000000, A.D. 2027-Feb-20 00:00:00.0000, -7.715760057220645E+07, 4.101370036185362E+08, -5.655241666806990E+07,
2461463.500000000, A.D. 2027-Feb-27 00:00:00.0000, -8.702733646989492E+07, 4.097498882037688E+08, -5.601802263449840E+07,
2461470.500000000, A.D. 2027-Mar-06 00:00:00.0000, -9.684118840299863E+07, 4.090992373858024E+08, -5.544758552656986E+07,
2461477.500000000, A.D. 2027-Mar-13 00:00:00.0000, -1.065934758347740E+08, 4.081881187363950E+08, -5.484183032819037E+07,
2461484.500000000, A.D. 2027-Mar-20 00:00:00.0000, -1.162786530466004E+08, 4.070196349705300E+08, -5.420148081636183E+07,
2461491.500000000, A.D. 2027-Mar-27 00:00:00.0000, -1.258913036398569E+08, 4.055969212481977E+08, -5.352725939759377E+07,
2461498.500000000, A.D. 2027-Apr-03 00:00:00.0000, -1.354261352773012E+08, 4.039231427071787E+08, -5.281988698399624E+07,
2461505.500000000, A.D. 2027-Apr-10 00:00:00.0000, -1.448779746039163E+08, 4.020014922297443E+08, -5.208008290983498E+07,
2461512.500000000, A.D. 2027-Apr-17 00:00:00.0000, -1.542417623254876E+08, 3.998351884102867E+08, -5.130856488903426E+07,
2461519.500000000, A.D. 2027-Apr-24 00:00:00.0000, -1.635125483653384E+08, 3.974274736443082E+08, -5.050604902344833E+07,
2461526.500000000, A.D. 2027-May-01 00:00:00.0000, -1.726854867987846E+08, 3.947816123503098E+08, -4.967324988474764E+07,
2461533.500000000, A.D. 2027-May-08 00:00:00.0000, -1.817558302571289E+08, 3.919008900581109E+08, -4.881088063486351E+07,
2461540.500000000, A.D. 2027-May-15 00:00:00.0000, -1.907189252972193E+08, 3.887886143046774E+08, -4.791965296828815E+07,
2461547.500000000, A.D. 2027-May-22 00:00:00.0000, -1.995702102970231E+08, 3.854481147343874E+08, -4.700027694305938E+07,
2461554.500000000, A.D. 2027-May-29 00:00:00.0000, -2.083052125172672E+08, 3.818827409207246E+08, -4.605346112551208E+07,
2461561.500000000, A.D. 2027-Jun-05 00:00:00.0000, -2.169195434443562E+08, 3.780958610291771E+08, -4.507991287229070E+07,
2461568.500000000, A.D. 2027-Jun-12 00:00:00.0000, -2.254088944209711E+08, 3.740908617458477E+08, -4.408033852961838E+07,
2461575.500000000, A.D. 2027-Jun-19 00:00:00.0000, -2.337690328920416E+08, 3.698711485284791E+08, -4.305544359464832E+07,
2461582.500000000, A.D. 2027-Jun-26 00:00:00.0000, -2.419957989838853E+08, 3.654401459098567E+08, -4.200593288444129E+07,
2461589.500000000, A.D. 2027-Jul-03 00:00:00.0000, -2.500851022822190E+08, 3.608012978542429E+08, -4.093251072279207E+07,
2461596.500000000, A.D. 2027-Jul-10 00:00:00.0000, -2.580329187701982E+08, 3.559580681690575E+08, -3.983588114655180E+07,
2461603.500000000, A.D. 2027-Jul-17 00:00:00.0000, -2.658352878880343E+08, 3.509139409273729E+08, -3.871674813705200E+07,
2461610.500000000, A.D. 2027-Jul-24 00:00:00.0000, -2.734883095553012E+08, 3.456724208335521E+08, -3.757581589524850E+07,
2461617.500000000, A.D. 2027-Jul-31 00:00:00.0000, -2.809881407414774E+08, 3.402370337628843E+08, -3.641378917813919E+07,
2461624.500000000, A.D. 2027-Aug-07 00:00:00.0000, -2.883309917823853E+08, 3.346113286221816E+08, -3.523137358295329E+07,
2461631.500000000, A.D. 2027-Aug-14 00:00:00.0000, -2.955131247411696E+08, 3.287988802739193E+08, -3.402927558802934E+07,
2461638.500000000, A.D. 2027-Aug-21 00:00:00.0000, -3.025308531918986E+08, 3.228032901553113E+08, -3.280820268109198E+07,
2461645.500000000, A.D. 2027-Aug-28 00:00:00.0000, -3.093805399918782E+08, 3.166281857880478E+08, -3.156886378990167E+07,
2461652.500000000, A.D. 2027-Sep-04 00:00:00.0000, -3.160585942265794E+08, 3.102772216764393E+08, -3.031196970247899E+07,
2461659.500000000, A.D. 2027-Sep-11 00:00:00.0000, -3.225614687253931E+08, 3.037540809335511E+08, -2.903823340403061E+07,
2461666.500000000, A.D. 2027-Sep-18 00:00:00.0000, -3.288856580149589E+08, 2.970624769864168E+08, -2.774837039650801E+07,
2461673.500000000, A.D. 2027-Sep-25 00:00:00.0000, -3.350276964801506E+08, 2.902061552828817E+08, -2.644309902827589E+07,
2461680.500000000, A.D. 2027-Oct-02 00:00:00.0000, -3.409841566566918E+08, 2.831888950272840E+08, -2.512314083850574E+07,
2461687.500000000, A.D. 2027-Oct-09 00:00:00.0000, -3.467516476323482E+08, 2.760145109399154E+08, -2.378922091865784E+07,
2461694.500000000, A.D. 2027-Oct-16 00:00:00.0000, -3.523268134934055E+08, 2.686868549848678E+08, -2.244206830125861E+07,
2461701.500000000, A.D. 2027-Oct-23 00:00:00.0000, -3.577063315568807E+08, 2.612098180601769E+08, -2.108241640020926E+07,
2461708.500000000, A.D. 2027-Oct-30 00:00:00.0000, -3.628869100145876E+08, 2.535873322602100E+08, -1.971100348704317E+07,
2461715.500000000, A.D. 2027-Nov-06 00:00:00.0000, -3.678652861546386E+08, 2.458233748383297E+08, -1.832857300429232E+07,
2461722.500000000, A.D. 2027-Nov-13 00:00:00.0000, -3.726382271494646E+08, 2.379219717952247E+08, -1.693587370386864E+07,
2461729.500000000, A.D. 2027-Nov-20 00:00:00.0000, -3.772025305099747E+08, 2.298871989093409E+08, -1.553366005517365E+07,
2461736.500000000, A.D. 2027-Nov-27 00:00:00.0000, -3.815550225885184E+08, 2.217231831730043E+08, -1.412269282839635E+07,
2461743.500000000, A.D. 2027-Dec-04 00:00:00.0000, -3.856925571587079E+08, 2.134341055474612E+08, -1.270373959268963E+07,
2461750.500000000, A.D. 2027-Dec-11 00:00:00.0000, -3.896120146284634E+08, 2.050242040750213E+08, -1.127757515778095E+07,
2461757.500000000, A.D. 2027-Dec-18 00:00:00.0000, -3.933103016158159E+08, 1.964977770114564E+08, -9.844982011881426E+06,
2461764.500000000, A.D. 2027-Dec-25 00:00:00.0000, -3.967843507400913E+08, 1.878591859779702E+08, -8.406750769788332E+06,
2461771.500000000, A.D. 2028-Jan-01 00:00:00.0000, -4.000311205925515E+08, 1.791128591486462E+08, -6.963680633567736E+06,
$$EOE